GLOBALSTAR M024         
1 25883U 99043A   25077.72530888 -.00000086  00000+0 -74100-3 0  9993
2 25883  51.9986 224.7360 0000661 324.0499 173.0270 11.10162308104811
GLOBALSTAR M027         
1 25884U 99043B   25077.89306225 -.00000057  00000+0  26111-3 0  9994
2 25884  52.0217 299.7853 0020948 204.0732 155.9083 11.04371369131269
GLOBALSTAR M054         
1 25885U 99043C   25077.42178521 -.00000090  00000+0 -47311-3 0  9993
2 25885  52.0125  83.3610 0006001  19.1636 128.1234 11.39211340108701
GLOBALSTAR M053         
1 25886U 99043D   25078.20921954 -.00000063  00000+0  17498-3 0  9999
2 25886  52.0021  23.5762 0003171 293.2321 206.2862 11.27663568109438
GLOBALSTAR M058         
1 25907U 99049A   25077.83671991 -.00000134  00000+0 -67351-3 0  9993
2 25907  51.9973 350.4349 0002625  91.2452 268.8683 11.93196518530750
GLOBALSTAR M050         
1 25908U 99049B   25077.90665448 -.00000125  00000+0 -41816-3 0  9990
2 25908  52.0027   4.6674 0008686 209.6936 238.7724 12.07450489137286
GLOBALSTAR M033         
1 25909U 99049C   25077.84004194 -.00000035  00000+0  54826-3 0  9993
2 25909  51.9891 242.9229 0014232  79.3290 280.9159 12.20287222524713
GLOBALSTAR M055         
1 25910U 99049D   25077.93192974 -.00000053  00000+0  34961-3 0  9997
2 25910  52.0002 257.8081 0006210 308.3149  51.7144 12.29423474157188
